{"type": "FeatureCollection", "features": [ {"type": "Feature", "properties": {"norad_id": 36402, "name": "COSMOS 2460 (732)", "group": "gnss", "lat": -63.882691837614104, "lon": -150.98344798741402, "alt_km": 19129.190140954848, "timestamp": "2025-12-11T18:59:46.314447+00:00", "meta": {"OBJECT_NAME": "COSMOS 2460 (732)", "OBJECT_ID": "2010-007C", "EPOCH": "2025-12-09T19:21:37.643616", "MEAN_MOTION": 2.13105924, "ECCENTRICITY": 0.00027883, "INCLINATION": 65.5316, "RA_OF_ASC_NODE": 320.8726, "ARG_OF_PERICENTER": 272.035, "MEAN_ANOMALY": 265.828, "EPHEMERIS_TYPE": 0, "CLASSIFICATION_TYPE": "U", "NORAD_CAT_ID": 36402, "ELEMENT_SET_NO": 999, "REV_AT_EPOCH": 12269, "BSTAR": 0, "MEAN_MOTION_DOT": -4.9e-07, "MEAN_MOTION_DDOT": 0}, "tle": {"line1": "1 36402U 10007C   25343.80668569 -.00000049  00000+0  00000+0 0  9990", "line2": "2 36402  65.5316 320.8726 0002788 272.0350 265.8280  2.13105924122693"}}, "geometry": {"type": "Point", "coordinates": [-150.98344798741402, -63.882691837614104]}}, {"type": "Feature", "properties": {"norad_id": 36585, "name": "GPS BIIF-1  (PRN 25)", "group": "gnss", "lat": -31.345727567694084, "lon": 62.07902470242844, "alt_km": 20489.3536304411, "timestamp": "2025-12-11T18:59:46.314458+00:00", "meta": {"OBJECT_NAME": "GPS BIIF-1  (PRN 25)", "OBJECT_ID": "2010-022A", "EPOCH": "2025-12-11T05:47:33.116064", "MEAN_MOTION": 2.00553131, "ECCENTRICITY": 0.01260483, "INCLINATION": 54.3003, "RA_OF_ASC_NODE": 216.1344, "ARG_OF_PERICENTER": 65.0548, "MEAN_ANOMALY": 116.9692, "EPHEMERIS_TYPE": 0, "CLASSIFICATION_TYPE": "U", "NORAD_CAT_ID": 36585, "ELEMENT_SET_NO": 999, "REV_AT_EPOCH": 11382, "BSTAR": 0, "MEAN_MOTION_DOT": 1.3e-07, "MEAN_MOTION_DDOT": 0}, "tle": {"line1": "1 36585U 10022A   25345.24135551  .00000013  00000+0  00000+0 0  9999", "line2": "2 36585  54.3003 216.1344 0126048  65.0548 116.9692  2.00553131113823"}}, "geometry": {"type": "Point", "coordinates": [62.07902470242844, -31.345727567694084]}}, {"type": "Feature", "properties": {"norad_id": 36828, "name": "BEIDOU-2 IGSO-1 (C06)", "group": "gnss", "lat": -38.7678672461089, "lon": 129.3083513239365, "alt_km": 35802.37697089685, "timestamp": "2025-12-11T18:59:46.314471+00:00", "meta": {"OBJECT_NAME": "BEIDOU-2 IGSO-1 (C06)", "OBJECT_ID": "2010-036A", "EPOCH": "2025-12-10T22:02:21.652224", "MEAN_MOTION": 1.00276584, "ECCENTRICITY": 0.0051188, "INCLINATION": 54.2844, "RA_OF_ASC_NODE": 164.6636, "ARG_OF_PERICENTER": 215.8581, "MEAN_ANOMALY": 137.825, "EPHEMERIS_TYPE": 0, "CLASSIFICATION_TYPE": "U", "NORAD_CAT_ID": 36828, "ELEMENT_SET_NO": 999, "REV_AT_EPOCH": 5620, "BSTAR": 0, "MEAN_MOTION_DOT": -5.7e-07, "MEAN_MOTION_DDOT": 0}, "tle": {"line1": "1 36828U 10036A   25344.91830616 -.00000057  00000+0  00000+0 0  9990", "line2": "2 36828  54.2844 164.6636 0051188 215.8581 137.8250  1.00276584 56203"}}, "geometry": {"type": "Point", "coordinates": [129.3083513239365, -38.7678672461089]}}, {"type": "Feature", "properties": {"norad_id": 37210, "name": "BEIDOU-2 G4 (C04)", "group": "gnss", "lat": 3.1663193745876512, "lon": 165.64483194837345, "alt_km": 35789.49079521783, "timestamp": "2025-12-11T18:59:46.314483+00:00", "meta": {"OBJECT_NAME": "BEIDOU-2 G4 (C04)", "OBJECT_ID": "2010-057A", "EPOCH": "2025-12-11T04:00:01.931328", "MEAN_MOTION": 1.00271338, "ECCENTRICITY": 0.00109428, "INCLINATION": 3.181, "RA_OF_ASC_NODE": 69.9412, "ARG_OF_PERICENTER": 190.3244, "MEAN_ANOMALY": 39.9467, "EPHEMERIS_TYPE": 0, "CLASSIFICATION_TYPE": "U", "NORAD_CAT_ID": 37210, "ELEMENT_SET_NO": 999, "REV_AT_EPOCH": 5540, "BSTAR": 0, "MEAN_MOTION_DOT": -1.06e-06, "MEAN_MOTION_DDOT": 0}, "tle": {"line1": "1 37210U 10057A   25345.16668902 -.00000106  00000+0  00000+0 0  9999", "line2": "2 37210   3.1810  69.9412 0010942 190.3244  39.9467  1.00271338 55405"}}, "geometry": {"type": "Point", "coordinates": [165.64483194837345, 3.1663193745876512]}}, {"type": "Feature", "properties": {"norad_id": 37256, "name": "BEIDOU-2 IGSO-2 (C07)", "group": "gnss", "lat": -13.953577375974987, "lon": 107.10284864171827, "alt_km": 35586.063109565664, "timestamp": "2025-12-11T18:59:46.314496+00:00", "meta": {"OBJECT_NAME": "BEIDOU-2 IGSO-2 (C07)", "OBJECT_ID": "2010-068A", "EPOCH": "2025-12-03T17:22:36.027840", "MEAN_MOTION": 1.0028872, "ECCENTRICITY": 0.00492449, "INCLINATION": 47.9042, "RA_OF_ASC_NODE": 274.2614, "ARG_OF_PERICENTER": 216.1411, "MEAN_ANOMALY": 310.24, "EPHEMERIS_TYPE": 0, "CLASSIFICATION_TYPE": "U", "NORAD_CAT_ID": 37256, "ELEMENT_SET_NO": 999, "REV_AT_EPOCH": 5483, "BSTAR": 0, "MEAN_MOTION_DOT": -2.25e-06, "MEAN_MOTION_DDOT": 0}, "tle": {"line1": "1 37256U 10068A   25337.72402810 -.00000225  00000+0  00000+0 0  9990", "line2": "2 37256  47.9042 274.2614 0049244 216.1411 310.2400  1.00288720 54834"}}, "geometry": {"type": "Point", "coordinates": [107.10284864171827, -13.953577375974987]}}, {"type": "Feature", "properties": {"norad_id": 37384, "name": "BEIDOU-2 IGSO-3 (C08)", "group": "gnss", "lat": 56.68069616389876, "lon": 95.41966359865437, "alt_km": 35846.44839479162, "timestamp": "2025-12-11T18:59:46.314510+00:00", "meta": {"OBJECT_NAME": "BEIDOU-2 IGSO-3 (C08)", "OBJECT_ID": "2011-013A", "EPOCH": "2025-12-11T02:02:50.655264", "MEAN_MOTION": 1.00270762, "ECCENTRICITY": 0.0035342, "INCLINATION": 62.1408, "RA_OF_ASC_NODE": 41.9319, "ARG_OF_PERICENTER": 187.1031, "MEAN_ANOMALY": 349.3097, "EPHEMERIS_TYPE": 0, "CLASSIFICATION_TYPE": "U", "NORAD_CAT_ID": 37384, "ELEMENT_SET_NO": 999, "REV_AT_EPOCH": 5377, "BSTAR": 0, "MEAN_MOTION_DOT": -1.95e-06, "MEAN_MOTION_DDOT": 0}, "tle": {"line1": "1 37384U 11013A   25345.08530851 -.00000195  00000+0  00000+0 0  9994", "line2": "2 37384  62.1408  41.9319 0035342 187.1031 349.3097  1.00270762 53775"}}, "geometry": {"type": "Point", "coordinates": [95.41966359865437, 56.68069616389876]}}, {"type": "Feature", "properties": {"norad_id": 37605, "name": "GSAT-8 (GAGAN/PRN 127)", "group": "gnss", "lat": -0.6353115699148997, "lon": 60.821568258141745, "alt_km": 35819.88582736651, "timestamp": "2025-12-11T18:59:46.314522+00:00", "meta": {"OBJECT_NAME": "GSAT-8 (GAGAN/PRN 127)", "OBJECT_ID": "2011-022A", "EPOCH": "2025-12-11T03:30:04.800096", "MEAN_MOTION": 1.00270749, "ECCENTRICITY": 0.00088117, "INCLINATION": 1.646, "RA_OF_ASC_NODE": 84.202, "ARG_OF_PERICENTER": 182.7452, "MEAN_ANOMALY": 280.7672, "EPHEMERIS_TYPE": 0, "CLASSIFICATION_TYPE": "U", "NORAD_CAT_ID": 37605, "ELEMENT_SET_NO": 999, "REV_AT_EPOCH": 5133, "BSTAR": 0, "MEAN_MOTION_DOT": 9.1e-07, "MEAN_MOTION_DDOT": 0}, "tle": {"line1": "1 37605U 11022A   25345.14588889  .00000091  00000+0  00000+0 0  9995", "line2": "2 37605   1.6460  84.2020 0008811 182.7452 280.7672  1.00270749 51337"}}, "geometry": {"type": "Point", "coordinates": [60.821568258141745, -0.6353115699148997]}}, {"type": "Feature", "properties": {"norad_id": 37763, "name": "BEIDOU-2 IGSO-4 (C09)", "group": "gnss", "lat": -47.96015974299346, "lon": 115.15753141879166, "alt_km": 35504.84082033308, "timestamp": "2025-12-11T18:59:46.314534+00:00", "meta": {"OBJECT_NAME": "BEIDOU-2 IGSO-4 (C09)", "OBJECT_ID": "2011-038A", "EPOCH": "2025-12-10T12:04:03.489024", "MEAN_MOTION": 1.00284678, "ECCENTRICITY": 0.01490344, "INCLINATION": 54.5829, "RA_OF_ASC_NODE": 167.3658, "ARG_OF_PERICENTER": 230.2355, "MEAN_ANOMALY": 317.2212, "EPHEMERIS_TYPE": 0, "CLASSIFICATION_TYPE": "U", "NORAD_CAT_ID": 37763, "ELEMENT_SET_NO": 999, "REV_AT_EPOCH": 5275, "BSTAR": 0, "MEAN_MOTION_DOT": 3.6e-07, "MEAN_MOTION_DDOT": 0}, "tle": {"line1": "1 37763U 11038A   25344.50281816  .00000036  00000+0  00000+0 0  9995", "line2": "2 37763  54.5829 167.3658 0149034 230.2355 317.2212  1.00284678 52751"}}, "geometry": {"type": "Point", "coordinates": [115.15753141879166, -47.96015974299346]}}, {"type": "Feature", "properties": {"norad_id": 37846, "name": "GSAT0101 (GALILEO-PFM)", "group": "gnss", "lat": 31.99538758877853, "lon": 10.746744484711263, "alt_km": 23217.554206094363, "timestamp": "2025-12-11T18:59:46.314548+00:00", "meta": {"OBJECT_NAME": "GSAT0101 (GALILEO-PFM)", "OBJECT_ID": "2011-060A", "EPOCH": "2025-12-08T19:04:30.018432", "MEAN_MOTION": 1.70475601, "ECCENTRICITY": 0.00029509, "INCLINATION": 57.0536, "RA_OF_ASC_NODE": 346.9268, "ARG_OF_PERICENTER": 313.0699, "MEAN_ANOMALY": 46.9223, "EPHEMERIS_TYPE": 0, "CLASSIFICATION_TYPE": "U", "NORAD_CAT_ID": 37846, "ELEMENT_SET_NO": 999, "REV_AT_EPOCH": 8787, "BSTAR": 0, "MEAN_MOTION_DOT": -8.7e-07, "MEAN_MOTION_DDOT": 0}, "tle": {"line1": "1 37846U 11060A   25342.79479188 -.00000087  00000+0  00000+0 0  9999", "line2": "2 37846  57.0536 346.9268 0002950 313.0699  46.9223  1.70475601 87878"}}, "geometry": {"type": "Point", "coordinates": [10.746744484711263, 31.99538758877853]}}, {"type": "Feature", "properties": {"norad_id": 37847, "name": "GSAT0102 (GALILEO-FM2)", "group": "gnss", "lat": 56.65321846729295, "lon": 67.08027227158111, "alt_km": 23226.049734670254, "timestamp": "2025-12-11T18:59:46.314560+00:00", "meta": {"OBJECT_NAME": "GSAT0102 (GALILEO-FM2)", "OBJECT_ID": "2011-060B", "EPOCH": "2025-12-10T12:23:27.701376", "MEAN_MOTION": 1.70475849, "ECCENTRICITY": 0.00049481, "INCLINATION": 57.054, "RA_OF_ASC_NODE": 346.8806, "ARG_OF_PERICENTER": 308.752, "MEAN_ANOMALY": 73.2267, "EPHEMERIS_TYPE": 0, "CLASSIFICATION_TYPE": "U", "NORAD_CAT_ID": 37847, "ELEMENT_SET_NO": 999, "REV_AT_EPOCH": 8791, "BSTAR": 0, "MEAN_MOTION_DOT": -8.8e-07, "MEAN_MOTION_DDOT": 0}, "tle": {"line1": "1 37847U 11060B   25344.51629284 -.00000088  00000+0  00000+0 0  9997", "line2": "2 37847  57.0540 346.8806 0004948 308.7520  73.2267  1.70475849 87914"}}, "geometry": {"type": "Point", "coordinates": [67.08027227158111, 56.65321846729295]}}]}